BEIDOU-2 IGSO-1 (C06)   
1 36828U 10036A   24104.66071868 -.00000107  00000+0  00000+0 0  9997
2 36828  54.2447 170.1543 0040131 199.6198 174.1558  1.00245843 50269
BEIDOU-2 G4 (C04)       
1 37210U 10057A   24104.56479779 -.00000121  00000+0  00000+0 0  9994
2 37210   1.6920  67.7758 0004321 205.7402 292.0292  1.00273139 49323
BEIDOU-2 IGSO-2 (C07)   
1 37256U 10068A   24103.88864942 -.00000201  00000+0  00000+0 0  9999
2 37256  48.9995 281.6078 0032702 208.3565 139.7242  1.00270946 48812
BEIDOU-2 IGSO-3 (C08)   
1 37384U 11013A   24104.25874133 -.00000196  00000+0  00000+0 0  9990
2 37384  61.2651  47.7354 0025594 180.8417 175.4079  1.00274930 47686
BEIDOU-2 IGSO-4 (C09)   
1 37763U 11038A   24103.69390243 -.00000094  00000+0  00000+0 0  9997
2 37763  54.5512 172.7559 0123177 228.2131 146.4597  1.00272863 46674
BEIDOU-2 IGSO-5 (C10)   
1 37948U 11073A   24104.46990057 -.00000145  00000+0  00000+0 0  9993
2 37948  49.1296 281.2832 0094857 218.9512 325.8540  1.00265934 45164
BEIDOU-2 G5 (C05)       
1 38091U 12008A   24104.53473778  .00000048  00000+0  00000+0 0  9997
2 38091   1.9200  70.2679 0009609 259.4656 123.6502  1.00274028 44402
BEIDOU-2 M3 (C11)       
1 38250U 12018A   24103.96121591 -.00000092  00000+0  00000+0 0  9994
2 38250  56.3796 331.5107 0021080 267.3784  92.4175  1.86231293 81130
BEIDOU-2 M4 (C12)       
1 38251U 12018B   24103.89169398 -.00000091  00000+0  00000+0 0  9993
2 38251  56.2877 330.7896 0012076 273.5076  86.3911  1.86232050 81484
BEIDOU-2 M6 (C14)       
1 38775U 12050B   24104.13805858 -.00000003  00000+0  00000+0 0  9999
2 38775  55.8639  89.3356 0014784 330.7341  29.1680  1.86231125 78502
BEIDOU-2 G6 (C02)       
1 38953U 12059A   24104.53978508 -.00000185  00000+0  00000+0 0  9994
2 38953   2.3959  80.8960 0010743 303.6416  95.9599  1.00275021 41949
BEIDOU-3S IGSO-1S (C31) 
1 40549U 15019A   24104.02966116 -.00000166  00000+0  00000+0 0  9992
2 40549  50.6916 304.9531 0036281 191.3433 170.7147  1.00263299 33106
BEIDOU-3S M2S (C58)     
1 40748U 15037A   24104.09250514 -.00000090  00000+0  00000+0 0  9994
2 40748  55.5214 329.2443 0008099 262.5326  97.4101  1.86233207 59318
BEIDOU-3S M1S (C57)     
1 40749U 15037B   24104.36282343 -.00000090  00000+0  00000+0 0  9990
2 40749  55.5241 329.2219 0005591 356.8533   3.1778  1.86233001 59317
BEIDOU-3S IGSO-2S (C56) 
1 40938U 15053A   24103.88140705 -.00000141  00000+0  00000+0 0  9996
2 40938  50.4619 268.1599 0050282 187.4201 159.7948  1.00277492 31370
BEIDOU-2 IGSO-6 (C13)   
1 41434U 16021A   24104.88828310 -.00000168  00000+0  00000+0 0  9999
2 41434  59.0897  45.9968 0048868 225.2855 346.6645  1.00283202 29508
BEIDOU-2 G7 (C03)       
1 41586U 16037A   24104.60915431 -.00000363  00000+0  00000+0 0  9992
2 41586   1.7528  68.7734 0009046 322.7564 140.5792  1.00272497 28822
BEIDOU-3 M1 (C19)       
1 43001U 17069A   24103.36722063 -.00000005  00000+0  00000+0 0  9994
2 43001  56.0137  89.4484 0012577 301.4976  58.3640  1.86231385 43786
BEIDOU-3 M2 (C20)       
1 43002U 17069B   24102.76735354 -.00000006  00000+0  00000+0 0  9996
2 43002  56.0124  89.5051 0010250 319.2107  40.6975  1.86231012 43763
BEIDOU-3 M7 (C27)       
1 43107U 18003A   24104.12794404 -.00000092  00000+0  00000+0 0  9999
2 43107  54.9790 329.8625 0005103  62.1227 297.9637  1.86232415 42545
BEIDOU-3 M8 (C28)       
1 43108U 18003B   24104.06784101 -.00000092  00000+0  00000+0 0  9996
2 43108  54.9716 329.8503 0002645 278.6974  81.3073  1.86230893 42558
BEIDOU-3 M4 (C22)       
1 43207U 18018A   24103.43528002 -.00000005  00000+0  00000+0 0  9992
2 43207  55.9725  89.5375 0007307 337.5697  22.3830  1.86231321 41926
BEIDOU-3 M3 (C21)       
1 43208U 18018B   24102.96489286 -.00000006  00000+0  00000+0 0  9991
2 43208  55.9717  89.5575 0010313 310.5213  49.3737  1.86231327 41916
BEIDOU-3 M9 (C29)       
1 43245U 18029A   24104.26063461 -.00000088  00000+0  00000+0 0  9992
2 43245  54.8643 327.5712 0000835  18.7661 341.2698  1.86232631 41091
BEIDOU-3 M10 (C30)      
1 43246U 18029B   24104.19039425 -.00000088  00000+0  00000+0 0  9998
2 43246  54.8623 327.6023 0004828  14.7065 345.3404  1.86232807 41079
BEIDOU-2 IGSO-7 (C16)   
1 43539U 18057A   24104.65518045 -.00000125  00000+0  00000+0 0  9997
2 43539  55.1341 169.9317 0073696 232.6235 148.7533  1.00272762 21163
BEIDOU-3 M5 (C23)       
1 43581U 18062A   24103.87544805 -.00000002  00000+0  00000+0 0  9990
2 43581  54.1407 209.3584 0002798 277.8904  82.0892  1.86228653 38829
BEIDOU-3 M6 (C24)       
1 43582U 18062B   24103.20464181  .00000005  00000+0  00000+0 0  9998
2 43582  54.1404 209.3708 0004744  27.9860 332.0496  1.86229389 38817
BEIDOU-3 M12 (C26)      
1 43602U 18067A   24104.21262488 -.00000007  00000+0  00000+0 0  9997
2 43602  54.2297 208.0121 0007080  26.3434 333.7065  1.86231709 38316
BEIDOU-3 M11 (C25)      
1 43603U 18067B   24103.80957958 -.00000002  00000+0  00000+0 0  9990
2 43603  54.2272 207.9910 0003854  17.7615 342.2658  1.86231577 38332
BEIDOU-3 M13 (C32)      
1 43622U 18072A   24103.76999686 -.00000005  00000+0  00000+0 0  9999
2 43622  55.9436  89.0603 0009074 299.0784  60.8150  1.86231336 37841
BEIDOU-3 M14 (C33)      
1 43623U 18072B   24103.63544947 -.00000005  00000+0  00000+0 0  9992
2 43623  55.9454  89.0578 0006763 317.9880  41.9442  1.86231380 37834
BEIDOU-3 M16 (C35)      
1 43647U 18078A   24104.33553049 -.00000089  00000+0  00000+0 0  9997
2 43647  54.7609 327.6732 0008152  18.9494 341.1137  1.86232280 37358
BEIDOU-3 M15 (C34)      
1 43648U 18078B   24103.92775630 -.00000089  00000+0  00000+0 0  9994
2 43648  54.7569 327.6904 0005244  29.1467 330.9157  1.86232194 37361
BEIDOU-3 G1 (C59)       
1 43683U 18085A   24104.83726409 -.00000286  00000+0  00000+0 0  9991
2 43683   2.0347 112.1588 0003372 340.7890 191.0197  1.00273955 20084
BEIDOU-3 M17 (C36)      
1 43706U 18093A   24104.07709422 -.00000005  00000+0  00000+0 0  9997
2 43706  54.2234 209.2852 0007980 281.4467  78.4754  1.86228296 36734
BEIDOU-3 M18 (C37)      
1 43707U 18093B   24103.94294567 -.00000003  00000+0  00000+0 0  9990
2 43707  54.2242 209.2815 0006323 314.6808  45.2793  1.86229752 36723
BEIDOU-3 IGSO-1 (C38)   
1 44204U 19023A   24103.85400692 -.00000228  00000+0  00000+0 0  9994
2 44204  57.5519  45.9056 0019361 215.2856   7.0816  1.00268702 18362
BEIDOU-2 G8 (C01)       
1 44231U 19027A   24104.83813432 -.00000257  00000+0  00000+0 0  9999
2 44231   1.7906  73.4507 0003081 181.2464  34.0055  1.00275245 18106
BEIDOU-3 IGSO-2 (C39)   
1 44337U 19035A   24104.61238257 -.00000125  00000+0  00000+0 0  9991
2 44337  55.1680 165.8343 0032907 207.5657 168.2007  1.00261333 17732
BEIDOU-3 M24 (C46)      
1 44542U 19061A   24101.32820852  .00000012  00000+0  00000+0 0  9995
2 44542  54.4512 209.6517 0007339 359.7363   0.2648  1.86231072 30935
BEIDOU-3 M23 (C45)      
1 44543U 19061B   24104.22638920 -.00000006  00000+0  00000+0 0  9995
2 44543  54.4494 209.5226 0004220 345.0646  70.2074  1.86231550 30996
BEIDOU-3 IGSO-3 (C40)   
1 44709U 19073A   24103.91165365 -.00000180  00000+0  00000+0 0  9998
2 44709  56.1614 289.4111 0036581 179.6104 180.3349  1.00269439 16487
BEIDOU-3 M22 (C44)      
1 44793U 19078A   24102.24796729 -.00000087  00000+0  00000+0 0  9991
2 44793  54.6102 327.6858 0007155  25.9891 334.0838  1.86232013 29802
BEIDOU-3 M21 (C43)      
1 44794U 19078B   24103.98876275 -.00000089  00000+0  00000+0 0  9991
2 44794  54.5825 327.6027 0005020  19.7154 340.3368  1.86232629 29849
BEIDOU-3 M19 (C41)      
1 44864U 19090A   24104.19525727 -.00000003  00000+0  00000+0 0  9996
2 44864  55.8782  89.2200 0019846 282.7071  48.8775  1.86231680 29420
BEIDOU-3 M20 (C42)      
1 44865U 19090B   24103.83328789 -.00000004  00000+0  00000+0 0  9997
2 44865  55.8797  89.2654 0017766 294.5518 244.1006  1.86231612 29407
BEIDOU-3 G2 (C60)       
1 45344U 20017A   24104.90445360 -.00000150  00000+0  00000+0 0  9997
2 45344   2.2421  27.0200 0001202 317.7666 263.4251  1.00271477 15306
BEIDOU-3 G3 (C61)       
1 45807U 20040A   24104.60924663 -.00000364  00000+0  00000+0 0  9999
2 45807   0.6803  32.7708 0005949 299.4824 199.7967  1.00278017 14105
BEIDOU-3 G4             
1 56564U 23066A   24104.57896913 -.00000123  00000+0  00000+0 0  9997
2 56564   2.2844 288.2183 0003552 190.7954  91.6903  1.00272651  3421
BEIDOU-3 M25            
1 58654U 23207A   24104.07140422 -.00000005  00000+0  00000+0 0  9997
2 58654  55.0603  89.2861 0005017 290.7802  69.1512  1.86232243  2034
BEIDOU-3 M26            
1 58655U 23207B   24104.40718234 -.00000004  00000+0  00000+0 0  9996
2 58655  55.0623  89.2601 0005612 276.2127  83.7091  1.86231786  2023
